ZHUHAI-1 OVS-02         
1 43440U 18040B   25274.51922061  .00015408  00000+0  69934-3 0  9995
2 43440  97.0650 302.4448 0006044  95.4426 264.7500 15.20863201413340
ZHUHAI-1 OHS-02         
1 43441U 18040C   25274.53310744  .00021524  00000+0  76724-3 0  9998
2 43441  97.0688 308.2851 0014130  83.4633 276.8216 15.28828319 74830
GAOFEN-6                
1 43484U 18048A   25274.54812465  .00002451  00000+0  35740-3 0  9992
2 43484  97.8124 341.1992 0010820 292.0582  67.9478 14.76650797395228
LUOJIA-1 01             
1 43485U 18048B   25274.51307041  .00006799  00000+0  78781-3 0  9990
2 43485  97.8352 351.7787 0007994 247.5705 112.4664 14.85766852395785
PAKTES 1A               
1 43529U 18056A   25274.48918639  .00007821  00000+0  67595-3 0  9993
2 43529  98.0956  55.8365 0020270 249.0081 110.8971 14.97347783393183
PRSS-1                  
1 43530U 18056B   25274.47938556  .00003258  00000+0  42370-3 0  9998
2 43530  97.8154 344.1538 0001695 100.5740 259.5664 14.81330937390128
HAIYANG-1C              
1 43609U 18068A   25274.47700477  .00000478  00000+0  18614-3 0  9992
2 43609  98.5516 345.1231 0011394 138.9995 221.2048 14.34150552370008
SSTL S1-4               
1 43618U 18071A   25274.54050839  .00003207  00000+0  28944-3 0  9994
2 43618  97.5355 151.2896 0000534  61.4673 298.6603 14.96187513384261
HAIYANG-2B              
1 43655U 18081A   25274.56241500  .00000029  00000+0  71689-4 0  9999
2 43655  99.3354 282.1870 0000418 197.6656 162.4481 13.79306684349277
CZ-4B R/B               
1 43656U 18081B   25274.41443815  .00000647  00000+0  21073-3 0  9994
2 43656  99.3776 166.6045 0204247 292.1652  65.7967 14.31708436362278
CFOSAT                  
1 43662U 18083A   25272.97249185  .00008797  00000+0  45449-3 0  9993
2 43662  97.3654 280.1564 0001148 119.1264 241.0084 15.16518322383008
TEN-KOH                 
1 43677U 18084G   25274.47093594  .00006686  00000+0  52623-3 0  9995
2 43677  98.0772  91.2429 0007294 232.2367 127.8196 15.01154377377326
DIWATA-2B               
1 43678U 18084H   25274.50104639  .00006326  00000+0  52853-3 0  9999
2 43678  98.1067  95.0604 0007795 263.9730  96.0603 14.98881433377441
STARS-AO                
1 43679U 18084J   25274.52295786  .00015889  00000+0  90942-3 0  9991
2 43679  98.0722 107.9128 0002074   3.6199 356.5045 15.12735856378300
AUTCUBE 2               
1 43681U 18084K   25274.06977870  .00010736  00000+0  71488-3 0  9994
2 43681  98.0858 101.6998 0009179 192.6747 167.4250 15.07282642377850
METOP-C                 
1 43689U 18087A   25274.46260928  .00000346  00000+0  17808-3 0  9990
2 43689  98.7037 333.2993 0001480 146.1831 213.9441 14.21500303358071
ES'HAIL 2               
1 43700U 18090A   25274.14003409  .00000146  00000+0  00000+0 0  9992
2 43700   0.0166 242.8371 0001420 337.1828 226.3593  1.00272494 25078
TIANPING 1B             
1 43714U 18094E   25274.52289926  .00571268  14675-3  11162-2 0  9992
2 43714  97.2903 314.7609 0001696 211.7158 148.4019 16.00226411384205
MOHAMMED VI-B           
1 43717U 18095A   25274.47041880  .00002386  00000+0  34501-3 0  9991
2 43717  97.9436 345.4839 0001240  89.1536 270.9816 14.77094138369990
HYSIS                   
1 43719U 18096A   25274.50628016  .00003645  00000+0  50472-3 0  9994
2 43719  98.0194 337.7997 0000724 129.0899 231.0377 14.78633394369192
COSMOS 2530             
1 43751U 18097A   25274.57634341  .00000038  00000+0  20267-3 0  9998
2 43751  82.5198  22.8052 0019051 237.1327 122.7919 12.42870626310165
COSMOS 2531             
1 43752U 18097B   25274.52312692  .00000050  00000+0  29312-3 0  9990
2 43752  82.5242  23.8063 0015727 256.2025 103.7305 12.42865203310176
COSMOS 2532             
1 43753U 18097C   25274.55007497  .00000048  00000+0  27499-3 0  9999
2 43753  82.5188  22.6926 0017218 258.3286 101.5862 12.42863417310146
MINXSS-2                
1 43758U 18099A   25274.45446962  .00046058  00000+0  15875-2 0  9994
2 43758  97.4903 341.0646 0012072 113.8450 246.4057 15.29793760374358
SIRION PATHFINDER-2     
1 43759U 18099B   25274.39795988  .00013989  00000+0  83673-3 0  9992
2 43759  97.4665 324.6001 0011150 111.4901 248.7519 15.11107898373491
AISTECHSAT 2            
1 43768U 18099L   25274.10375318  .00013205  00000+0  77825-3 0  9995
2 43768  97.4702 322.8466 0006639 111.5991 248.5948 15.11692086373081
FOX-1CLIFF (AO-95)      
1 43770U 18099N   25274.08114825  .00021437  00000+0  10105-2 0  9992
2 43770  97.4794 330.9872 0010594 169.0893 191.0573 15.19463393373777
2018-099Q               
1 43772U 18099Q   25273.63890694  .00067146  00000+0  18616-2 0  9991
2 43772  97.4592 339.7612 0003662  64.7173 295.4450 15.36690359374322
RANGE-A                 
1 43773U 18099R   25274.41412640  .00013509  00000+0  82814-3 0  9996
2 43773  97.4368 319.5182 0011778 154.1629 206.0191 15.10212973373399
HIBER-2                 
1 43774U 18099S   25274.11836644  .00107033  00000+0  19886-2 0  9992
2 43774  97.4751 346.1792 0004554  96.1038 264.0732 15.48514785374687
VESTA-1                 
1 43781U 18099Z   25274.08074781  .00123626  00000+0  21715-2 0  9992
2 43781  97.4475 339.3983 0002904 124.9723 235.1801 15.50063735374562
SNUSAT-2                
1 43782U 18099AA  25274.38078941  .00020824  00000+0  10708-2 0  9994
2 43782  97.4475 327.0781 0013027 117.1531 243.1032 15.16404598373733
SNUGLITE                
1 43784U 18099AC  25274.41514554  .00024723  00000+0  11528-2 0  9998
2 43784  97.4289 326.9329 0004901 113.4553 246.7197 15.19847260373919
ITASAT                  
1 43786U 18099AE  25274.12352206  .00015005  00000+0  81627-3 0  9993
2 43786  97.4446 325.9853 0014397 167.4375 192.7219 15.14465693373633
EAGLET-I                
1 43790U 18099AJ  25274.36963590  .00012063  00000+0  74275-3 0  9990
2 43790  97.4636 325.7736 0012524 153.2519 206.9359 15.10074080373231
ESEO                    
1 43792U 18099AL  25274.39398079  .00005188  00000+0  38842-3 0  9999
2 43792  97.4378 317.5007 0013754 131.7714 228.4690 15.03065455372919
THEA                    
1 43796U 18099AQ  25274.08683255  .00030175  00000+0  12249-2 0  9998
2 43796  97.4817 337.6780 0010521 120.8098 239.4176 15.24495779373073
ASTROCAST 0.1           
1 43798U 18099AS  25274.43046872  .00045458  00000+0  14360-2 0  9993
2 43798  97.4729 342.7608 0008149  77.0629 283.1522 15.32649349374580
JY1SAT (JO-97)          
1 43803U 18099AX  25274.12479653  .00027796  00000+0  11571-2 0  9999
2 43803  97.4536 332.3039 0008401 106.2997 253.9165 15.23681324374048
SUOMI-100               
1 43804U 18099AY  25274.40240914  .00025189  00000+0  11413-2 0  9996
2 43804  97.4603 331.5182 0013248 110.3256 249.9404 15.20766294373983
AL-FARABI 2             
1 43805U 18099AZ  25274.08732719  .00066083  00000+0  16275-2 0  9999
2 43805  97.4418 339.6149 0006389  81.9314 278.2657 15.40331855374604
CENTAURI-1              
1 43809U 18099BD  25274.17772847  .00015235  00000+0  87259-3 0  9993
2 43809  97.4633 326.4953 0016405 141.7080 218.5319 15.12592531373294
GLOBAL-2                
1 43812U 18099BG  25274.04510982  .00007987  00000+0  54405-3 0  9995
2 43812  97.3946 316.1489 0005139 342.6006  17.5045 15.06516906372866
SEAHAWK-1               
1 43820U 18099BQ  25274.12278979  .00017317  00000+0  87633-3 0  9997
2 43820  97.4379 325.9539 0010703 130.2998 229.9172 15.17030989373173
SAUDISAT 5A             
1 43831U 18102A   25274.54809525  .00013617  00000+0  55776-3 0  9999
2 43831  97.3460 336.1556 0009598 336.8320  23.2483 15.24367175376228
SAUDISAT 5B             
1 43833U 18102C   25274.49058271  .00013001  00000+0  52642-3 0  9995
2 43833  97.3547 338.7094 0010378 339.5761  20.5060 15.24759642376324
2018-102D               
1 43834U 18102D   25274.49680760  .00049836  00000+0  11080-2 0  9995
2 43834  97.3708 351.7675 0005906 296.0491  64.0149 15.43492844377075
ISAT                    
1 43879U 18111D   25273.75300063  .00053275  00000+0  15573-2 0  9990
2 43879  97.5865 190.9457 0009741 140.4169 219.7787 15.35059152371024
UWE-4                   
1 43880U 18111E   25274.19897143  .00043367  00000+0  14967-2 0  9998
2 43880  97.5807 188.9990 0011795 156.9726 203.2045 15.29769146370976
D-STAR ONE (SPARROW)    
1 43881U 18111F   25273.76355215  .00057646  00000+0  15997-2 0  9999
2 43881  97.6035 194.3152 0006493 163.9201 196.2250 15.36693070371135
JILIN-1 09              
1 43943U 19005B   25274.49897096  .00012668  00000+0  64038-3 0  9996
2 43943  97.4791   7.2131 0001384 269.9090  90.1985 15.17190884369876
JILIN-1 10              
1 43946U 19005E   25274.53351257  .00015655  00000+0  69695-3 0  9991
2 43946  97.4805   9.1197 0010095 106.8747 253.3597 15.21504129369929
EGYPTSAT-A (MISRSAT-A)  
1 44047U 19008A   25274.48223231  .00000441  00000+0  77536-4 0  9992
2 44047  98.0088 338.0650 0001328  86.7160 273.4200 14.72284178355174
EMISAT                  
1 44078U 19018A   25274.48330218  .00000669  00000+0  21009-3 0  9996
2 44078  98.5044 329.1905 0017735 277.9739  81.9439 14.43623663342732
JILIN-1 GAOFEN 3A       
1 44312U 19032C   25274.52889118  .00021763  00000+0  85951-3 0  9990
2 44312  44.9807 333.0454 0010139 273.1577  86.8145 15.25171802348241
XIAOXIANG 4             
1 44313U 19032D   25274.06293502  .00420454  00000+0  21574-2 0  9996
2 44313  44.9818 234.3384 0010112 106.2307 253.9709 15.79295735349433
WT 1A                   
1 44315U 19032F   25274.42012999  .00079633  00000+0  15982-2 0  9992
2 44315  44.9828 268.8292 0011202 359.4066   0.6808 15.45732142349013
WT 1B                   
1 44316U 19032G   25274.53559462  .00030934  00000+0  14191-2 0  9998
2 44316  44.9778  25.7026 0014581 229.2277 130.7338 15.19872363347623
PROX-1                  
1 44339U 19036A   25274.34892064  .00024587  00000+0  29502-2 0  9993
2 44339  23.9973  33.2087 0006177 297.6082  62.3788 14.82534019334906
